[
    {
        "Altitude(m)": 713702.1716491039,
        "Argument of Periapsis(deg)": 0.011390121186627068,
        "Eccentricity": 0.0,
        "Inclination(deg)": 45.0,
        "Latitude(deg)": -35.02493265630936,
        "Longitude(deg)": -59.968030435871796,
        "Mean Anomaly(deg)": -53.92128335251919,
        "RAAN(deg)": 84.98924805854179,
        "Satellite Name": "Constellation 1 392",
        "Satellite Number": 392,
        "Semi-Major Axis(m)": 7083131.272910544,
        "Time(s)": 190
    },
    {
        "Altitude(m)": 713689.6440651313,
        "Argument of Periapsis(deg)": 0.011450069192872472,
        "Eccentricity": 0.0,
        "Inclination(deg)": 45.0,
        "Latitude(deg)": -34.99409564621226,
        "Longitude(deg)": -59.90853168953752,
        "Mean Anomaly(deg)": -53.860582212269286,
        "RAAN(deg)": 84.98919146937624,
        "Satellite Name": "Constellation 1 392",
        "Satellite Number": 392,
        "Semi-Major Axis(m)": 7083131.272910544,
        "Time(s)": 191
    },
    {
        "Altitude(m)": 713677.1053536113,
        "Argument of Periapsis(deg)": 0.01151001719911788,
        "Eccentricity": 0.0,
        "Inclination(deg)": 45.0,
        "Latitude(deg)": -34.963225130222646,
        "Longitude(deg)": -59.84908051573392,
        "Mean Anomaly(deg)": -53.799881072019375,
        "RAAN(deg)": 84.98913488021067,
        "Satellite Name": "Constellation 1 392",
        "Satellite Number": 392,
        "Semi-Major Axis(m)": 7083131.272910544,
        "Time(s)": 192
    },
    {
        "Altitude(m)": 713664.5555595262,
        "Argument of Periapsis(deg)": 0.011569965205363285,
        "Eccentricity": 0.0,
        "Inclination(deg)": 45.0,
        "Latitude(deg)": -34.93232117064687,
        "Longitude(deg)": -59.789677043678196,
        "Mean Anomaly(deg)": -53.73917993176945,
        "RAAN(deg)": 84.98907829104509,
        "Satellite Name": "Constellation 1 392",
        "Satellite Number": 392,
        "Semi-Major Axis(m)": 7083131.272910544,
        "Time(s)": 193
    },
    {
        "Altitude(m)": 713651.9947278925,
        "Argument of Periapsis(deg)": 0.01162991321160869,
        "Eccentricity": 0.0,
        "Inclination(deg)": 45.0,
        "Latitude(deg)": -34.90138382972797,
        "Longitude(deg)": -59.730320898097986,
        "Mean Anomaly(deg)": -53.678478791519595,
        "RAAN(deg)": 84.98902170187952,
        "Satellite Name": "Constellation 1 392",
        "Satellite Number": 392,
        "Semi-Major Axis(m)": 7083131.272910544,
        "Time(s)": 194
    },
    {
        "Altitude(m)": 713639.4229037531,
        "Argument of Periapsis(deg)": 0.011689861217854095,
        "Eccentricity": 0.0,
        "Inclination(deg)": 45.0,
        "Latitude(deg)": -34.87041316964596,
        "Longitude(deg)": -59.67101220781559,
        "Mean Anomaly(deg)": -53.61777765126965,
        "RAAN(deg)": 84.98896511271396,
        "Satellite Name": "Constellation 1 392",
        "Satellite Number": 392,
        "Semi-Major Axis(m)": 7083131.272910544,
        "Time(s)": 195
    },
    {
        "Altitude(m)": 713626.840132208,
        "Argument of Periapsis(deg)": 0.0117498092240995,
        "Eccentricity": 0.0,
        "Inclination(deg)": 45.0,
        "Latitude(deg)": -34.839409252517484,
        "Longitude(deg)": -59.61175093336079,
        "Mean Anomaly(deg)": -53.55707651101973,
        "RAAN(deg)": 84.98890852354839,
        "Satellite Name": "Constellation 1 392",
        "Satellite Number": 392,
        "Semi-Major Axis(m)": 7083131.272910544,
        "Time(s)": 196
    },
    {
        "Altitude(m)": 713614.2464583585,
        "Argument of Periapsis(deg)": 0.011809757230344905,
        "Eccentricity": 0.0,
        "Inclination(deg)": 45.0,
        "Latitude(deg)": -34.80837214039564,
        "Longitude(deg)": -59.55253703506869,
        "Mean Anomaly(deg)": -53.49637537076987,
        "RAAN(deg)": 84.98885193438281,
        "Satellite Name": "Constellation 1 392",
        "Satellite Number": 392,
        "Semi-Major Axis(m)": 7083131.272910544,
        "Time(s)": 197
    },
    {
        "Altitude(m)": 713601.6419273672,
        "Argument of Periapsis(deg)": 0.011869705236590313,
        "Eccentricity": 0.0,
        "Inclination(deg)": 45.0,
        "Latitude(deg)": -34.777301895269694,
        "Longitude(deg)": -59.49337047308112,
        "Mean Anomaly(deg)": -53.43567423051995,
        "RAAN(deg)": 84.98879534521724,
        "Satellite Name": "Constellation 1 392",
        "Satellite Number": 392,
        "Semi-Major Axis(m)": 7083131.272910544,
        "Time(s)": 198
    },
    {
        "Altitude(m)": 713589.0265844162,
        "Argument of Periapsis(deg)": 0.011929653242835719,
        "Eccentricity": 0.0,
        "Inclination(deg)": 45.0,
        "Latitude(deg)": -34.746198579065116,
        "Longitude(deg)": -59.43425120734801,
        "Mean Anomaly(deg)": -53.37497309027005,
        "RAAN(deg)": 84.98873875605169,
        "Satellite Name": "Constellation 1 392",
        "Satellite Number": 392,
        "Semi-Major Axis(m)": 7083131.272910544,
        "Time(s)": 199
    }
]